NAVSTAR 43 (USA 132)    
1 24876U 97035A   26087.43169227  .00000051  00000+0  00000+0 0  9992
2 24876  55.9500 101.7308 0098722  56.1329 304.8527  2.00563873210339
NAVSTAR 48 (USA 151)    
1 26407U 00040A   26087.53223389 -.00000034  00000+0  00000+0 0  9997
2 26407  54.8698 218.3638 0122223 302.5125  64.7596  2.00569122188339
NAVSTAR 51 (USA 166)    
1 27663U 03005A   26087.08268548 -.00000029  00000+0  00000+0 0  9996
2 27663  54.9010 218.1895 0148530  52.8576 125.4188  2.00564876169680
NAVSTAR 54 (USA 177)    
1 28190U 04009A   26087.36597193 -.00000001  00000+0  00000+0 0  9999
2 28190  54.8974 278.9506 0112157 169.7670   8.2543  2.00557238161326
NAVSTAR 56 (USA 180)    
1 28474U 04045A   26085.30519351 -.00000073  00000+0  00000+0 0  9995
2 28474  55.1822 328.2360 0170517 313.6726 241.0281  2.00574367156760
NAVSTAR 57 (USA 183)    
1 28874U 05038A   26087.36787354  .00000000  00000+0  00000+0 0  9999
2 28874  54.9447 276.4371 0128190 295.6323 268.7932  2.00571249150211
INMARSAT 4-F2           
1 28899U 05044A   26087.55962522 -.00000276  00000+0  00000+0 0  9992
2 28899   4.9910  43.7951 0002935 337.4395 149.6921  1.00271063 74714
NAVSTAR 58 (USA 190)    
1 29486U 06042A   26087.96304715  .00000002  00000+0  00000+0 0  9999
2 29486  54.6992 154.5249 0106359  53.1327 118.3397  2.00574181142783
NAVSTAR 59 (USA 192)    
1 29601U 06052A   26087.64548781 -.00000036  00000+0  00000+0 0  9995
2 29601  54.9511 217.1971 0087291  89.8188 271.1436  2.00553221141798
NAVSTAR 60 (USA 196)    
1 32260U 07047A   26086.95412080  .00000026  00000+0  00000+0 0  9998
2 32260  54.0351  83.4118 0163968  86.1575 275.7399  2.00559397135183
COSMOS 2433 [GLONASS-M] 
1 32275U 07052A   26087.20336590 -.00000030  00000+0  00000+0 0  9996
2 32275  65.6216 318.6607 0001116 260.7324  99.3104  2.13103881143338
COSMOS 2432 [GLONASS-M] 
1 32276U 07052B   26086.56903220 -.00000031  00000+0  00000+0 0  9996
2 32276  65.6372 318.8082 0009989 334.8511 202.7099  2.13103077143349
NAVSTAR 61 (USA 199)    
1 32384U 07062A   26087.26503117  .00000001  00000+0  00000+0 0  9992
2 32384  55.0970 277.4035 0033697 161.1024 190.8547  2.00554962133889
COSMOS 2434 [GLONASS-M] 
1 32393U 07065A   26085.48499492 -.00000016  00000+0  00000+0 0  9994
2 32393  64.3174 194.7028 0003008  65.6290 306.3532  2.13101314142013
COSMOS 2436 [GLONASS-M] 
1 32395U 07065C   26085.30743119 -.00000013  00000+0  00000+0 0  9992
2 32395  64.3260 194.7801 0017338   4.3123   4.1011  2.13100149141969
NAVSTAR 62 (USA 201)    
1 32711U 08012A   26086.37275070 -.00000009  00000+0  00000+0 0  9996
2 32711  54.4839 153.1942 0208278 246.5928 111.2592  2.00569963132116
NAVSTAR 64 (USA 206)    
1 35752U 09043A   26087.58590830 -.00000085  00000+0  00000+0 0  9991
2 35752  56.1631  30.6179 0052264  80.8092  90.0384  2.00558801121746
